start=new Date('2021-09-11T00:00:00.000Z').valueOf();
sats=[{"SEMIMAJOR_AXIS":"6925.299","MEAN_MOTION":"15.06416330","FILE":"3112758","PERIOD":"95.591","SITE":"AFETR","CLASSIFICATION_TYPE":"U","GP_ID":"184473780","ELEMENT_SET_NO":"999","COUNTRY_CODE":"US","OBJECT_NAME":"STARLINK-2298","OBJECT_TYPE":"PAYLOAD","EPHEMERIS_TYPE":"0","MEAN_MOTION_DDOT":"0.0000000000000","MEAN_MOTION_DOT":"-0.00020077","DECAY_DATE":null,"RA_OF_ASC_NODE":"137.3379","RCS_SIZE":"LARGE","BSTAR":"-0.00133210000000","ECCENTRICITY":"0.00023040","INCLINATION":"53.0542","ARG_OF_PERICENTER":"76.6726","TLE_LINE1":"1 48022U 21024AX  21253.91667824 -.00020077  00000-0 -13321-2 0  9991","OBJECT_ID":"2021-024AX","LAUNCH_DATE":"2021-03-24","TIME_SYSTEM":"UTC","REF_FRAME":"TEME","EPOCH":"2021-09-10T22:00:00.999936","CENTER_NAME":"EARTH","PERIAPSIS":"545.568","TLE_LINE2":"2 48022  53.0542 137.3379 0002304  76.6726 112.3119 15.06416330  3586","NORAD_CAT_ID":"48022","MEAN_ANOMALY":"112.3119","MEAN_ELEMENT_THEORY":"SGP4","APOAPSIS":"548.759","REV_AT_EPOCH":"358"},{"MEAN_ANOMALY":"31.0474","TLE_LINE2":"2 48023  53.0534 137.3243 0001895  72.8477  31.0474 15.06405752  3580","PERIAPSIS":"545.884","NORAD_CAT_ID":"48023","CENTER_NAME":"EARTH","EPOCH":"2021-09-10T22:00:00.999936","REF_FRAME":"TEME","TIME_SYSTEM":"UTC","REV_AT_EPOCH":"358","MEAN_ELEMENT_THEORY":"SGP4","APOAPSIS":"548.508","ARG_OF_PERICENTER":"72.8477","INCLINATION":"53.0534","ECCENTRICITY":"0.00018950","BSTAR":"-0.00157260000000","RCS_SIZE":"LARGE","OBJECT_ID":"2021-024AY","LAUNCH_DATE":"2021-03-24","TLE_LINE1":"1 48023U 21024AY  21253.91667824 -.00023632  00000-0 -15726-2 0  9993","EPHEMERIS_TYPE":"0","OBJECT_TYPE":"PAYLOAD","OBJECT_NAME":"STARLINK-2292","COUNTRY_CODE":"US","ELEMENT_SET_NO":"999","GP_ID":"184474030","CLASSIFICATION_TYPE":"U","RA_OF_ASC_NODE":"137.3243","DECAY_DATE":null,"MEAN_MOTION_DOT":"-0.00023632","MEAN_MOTION_DDOT":"0.0000000000000","SEMIMAJOR_AXIS":"6925.331","SITE":"AFETR","PERIOD":"95.592","MEAN_MOTION":"15.06405752","FILE":"3112758"},{"EPOCH":"2021-09-10T22:00:00.999936","REF_FRAME":"TEME","TIME_SYSTEM":"UTC","MEAN_ANOMALY":"272.8253","PERIAPSIS":"346.872","TLE_LINE2":"2 48024  53.0451  76.8144 0004467   4.0929 272.8253 15.73158959  3682","NORAD_CAT_ID":"48024","CENTER_NAME":"EARTH","APOAPSIS":"352.883","MEAN_ELEMENT_THEORY":"SGP4","REV_AT_EPOCH":"368","RCS_SIZE":"LARGE","INCLINATION":"53.0451","ARG_OF_PERICENTER":"4.0929","ECCENTRICITY":"0.00044670","BSTAR":"0.00031706000000","TLE_LINE1":"1 48024U 21024AZ  21253.91667824  .00044058  00000-0  31706-3 0  9994","LAUNCH_DATE":"2021-03-24","OBJECT_ID":"2021-024AZ","OBJECT_NAME":"STARLINK-2302","COUNTRY_CODE":"US","ELEMENT_SET_NO":"999","CLASSIFICATION_TYPE":"U","GP_ID":"184474782","OBJECT_TYPE":"PAYLOAD","EPHEMERIS_TYPE":"0","MEAN_MOTION_DOT":"0.00044058","MEAN_MOTION_DDOT":"0.0000000000000","RA_OF_ASC_NODE":"76.8144","DECAY_DATE":null,"SEMIMAJOR_AXIS":"6728.012","SITE":"AFETR","PERIOD":"91.536","FILE":"3112758","MEAN_MOTION":"15.73158959"},{"BSTAR":"0.00055733000000","INCLINATION":"53.0449","ARG_OF_PERICENTER":"1.4227","ECCENTRICITY":"0.00043520","RCS_SIZE":"LARGE","OBJECT_ID":"2021-024BA","LAUNCH_DATE":"2021-03-24","TLE_LINE1":"1 48025U 21024BA  21253.91667824  .00078230  00000-0  55733-3 0  9990","TLE_LINE2":"2 48025  53.0449  76.8089 0004352   1.4227 276.1307 15.73157254  3687","NORAD_CAT_ID":"48025","PERIAPSIS":"346.954","CENTER_NAME":"EARTH","MEAN_ANOMALY":"276.1307","REF_FRAME":"TEME","TIME_SYSTEM":"UTC","EPOCH":"2021-09-10T22:00:00.999936","REV_AT_EPOCH":"368","APOAPSIS":"352.810","MEAN_ELEMENT_THEORY":"SGP4","SEMIMAJOR_AXIS":"6728.017","MEAN_MOTION":"15.73157254","FILE":"3112758","SITE":"AFETR","PERIOD":"91.536","OBJECT_TYPE":"PAYLOAD","EPHEMERIS_TYPE":"0","ELEMENT_SET_NO":"999","CLASSIFICATION_TYPE":"U","GP_ID":"184475532","OBJECT_NAME":"STARLINK-2318","COUNTRY_CODE":"US","DECAY_DATE":null,"RA_OF_ASC_NODE":"76.8089","MEAN_MOTION_DDOT":"0.0000000000000","MEAN_MOTION_DOT":"0.00078230"},{"CENTER_NAME":"EARTH","TLE_LINE2":"2 48026  53.0500 142.4434 0002319  72.6784 226.2625 15.04786070  3574","NORAD_CAT_ID":"48026","PERIAPSIS":"550.557","MEAN_ANOMALY":"226.2625","TIME_SYSTEM":"UTC","REF_FRAME":"TEME","EPOCH":"2021-09-10T22:00:00.999936","REV_AT_EPOCH":"357","APOAPSIS":"553.772","MEAN_ELEMENT_THEORY":"SGP4","BSTAR":"-0.00259960000000","ECCENTRICITY":"0.00023190","INCLINATION":"53.0500","ARG_OF_PERICENTER":"72.6784","RCS_SIZE":"LARGE","LAUNCH_DATE":"2021-03-24","OBJECT_ID":"2021-024BB","TLE_LINE1":"1 48026U 21024BB  21253.91667824 -.00037161  00000-0 -25996-2 0  9998","EPHEMERIS_TYPE":"0","OBJECT_TYPE":"PAYLOAD","GP_ID":"184474280","CLASSIFICATION_TYPE":"U","ELEMENT_SET_NO":"999","COUNTRY_CODE":"US","OBJECT_NAME":"STARLINK-2278","DECAY_DATE":null,"RA_OF_ASC_NODE":"142.4434","MEAN_MOTION_DDOT":"0.0000000000000","MEAN_MOTION_DOT":"-0.00037161","SEMIMAJOR_AXIS":"6930.299","MEAN_MOTION":"15.04786070","FILE":"3112758","PERIOD":"95.695","SITE":"AFETR"},{"CENTER_NAME":"EARTH","NORAD_CAT_ID":"48027","TLE_LINE2":"2 48027  53.0534 117.3280 0001987  68.9404   4.9606 15.06397846  3570","PERIAPSIS":"545.844","MEAN_ANOMALY":"4.9606","TIME_SYSTEM":"UTC","REF_FRAME":"TEME","EPOCH":"2021-09-10T22:00:00.999936","REV_AT_EPOCH":"357","APOAPSIS":"548.596","MEAN_ELEMENT_THEORY":"SGP4","BSTAR":"-0.00088120000000","ECCENTRICITY":"0.00019870","ARG_OF_PERICENTER":"68.9404","INCLINATION":"53.0534","RCS_SIZE":"LARGE","OBJECT_ID":"2021-024BC","LAUNCH_DATE":"2021-03-24","TLE_LINE1":"1 48027U 21024BC  21253.91667824 -.00013382  00000-0 -88120-3 0  9997","OBJECT_TYPE":"PAYLOAD","EPHEMERIS_TYPE":"0","CLASSIFICATION_TYPE":"U","GP_ID":"184474530","ELEMENT_SET_NO":"999","COUNTRY_CODE":"US","OBJECT_NAME":"STARLINK-2300","DECAY_DATE":null,"RA_OF_ASC_NODE":"117.3280","MEAN_MOTION_DDOT":"0.0000000000000","MEAN_MOTION_DOT":"-0.00013382","SEMIMAJOR_AXIS":"6925.355","MEAN_MOTION":"15.06397846","FILE":"3112758","PERIOD":"95.592","SITE":"AFETR"},{"GP_ID":"184475282","CLASSIFICATION_TYPE":"U","ELEMENT_SET_NO":"999","COUNTRY_CODE":"US","OBJECT_NAME":"STARLINK-2264","EPHEMERIS_TYPE":"0","OBJECT_TYPE":"PAYLOAD","MEAN_MOTION_DDOT":"0.0000000000000","MEAN_MOTION_DOT":"-0.00949784","DECAY_DATE":null,"RA_OF_ASC_NODE":"77.1300","SEMIMAJOR_AXIS":"6769.747","MEAN_MOTION":"15.58633840","FILE":"3112758","PERIOD":"92.389","SITE":"AFETR","TIME_SYSTEM":"UTC","REF_FRAME":"TEME","EPOCH":"2021-09-10T22:00:00.999936","CENTER_NAME":"EARTH","NORAD_CAT_ID":"48028","TLE_LINE2":"2 48028  53.0433  77.1300 0001489  44.1777  49.4817 15.58633840  3685","PERIAPSIS":"390.604","MEAN_ANOMALY":"49.4817","APOAPSIS":"392.620","MEAN_ELEMENT_THEORY":"SGP4","REV_AT_EPOCH":"368","RCS_SIZE":"LARGE","BSTAR":"-0.01342200000000","ECCENTRICITY":"0.00014890","ARG_OF_PERICENTER":"44.1777","INCLINATION":"53.0433","TLE_LINE1":"1 48028U 21024BD  21253.91667824 -.00949784  00000-0 -13422-1 0  9993","LAUNCH_DATE":"2021-03-24","OBJECT_ID":"2021-024BD"},{"ECCENTRICITY":"0.00022640","INCLINATION":"53.0539","ARG_OF_PERICENTER":"70.9215","BSTAR":"-0.00127280000000","RCS_SIZE":"LARGE","LAUNCH_DATE":"2021-03-24","OBJECT_ID":"2021-024BE","TLE_LINE1":"1 48029U 21024BE  21253.91667824 -.00019192  00000-0 -12728-2 0  9994","MEAN_ANOMALY":"152.9865","CENTER_NAME":"EARTH","PERIAPSIS":"545.637","TLE_LINE2":"2 48029  53.0539 137.3356 0002264  70.9215 152.9865 15.06402976  3588","NORAD_CAT_ID":"48029","EPOCH":"2021-09-10T22:00:00.999936","TIME_SYSTEM":"UTC","REF_FRAME":"TEME","REV_AT_EPOCH":"358","APOAPSIS":"548.772","MEAN_ELEMENT_THEORY":"SGP4","SEMIMAJOR_AXIS":"6925.339","PERIOD":"95.592","SITE":"AFETR","MEAN_MOTION":"15.06402976","FILE":"3112758","OBJECT_TYPE":"PAYLOAD","EPHEMERIS_TYPE":"0","COUNTRY_CODE":"US","OBJECT_NAME":"STARLINK-2299","GP_ID":"184475033","CLASSIFICATION_TYPE":"U","ELEMENT_SET_NO":"999","RA_OF_ASC_NODE":"137.3356","DECAY_DATE":null,"MEAN_MOTION_DOT":"-0.00019192","MEAN_MOTION_DDOT":"0.0000000000000"},{"TLE_LINE2":"2 48030  53.0527 142.3237 0001854  81.7635 354.6609 15.06404988  3583","NORAD_CAT_ID":"48030","PERIAPSIS":"545.914","CENTER_NAME":"EARTH","MEAN_ANOMALY":"354.6609","REF_FRAME":"TEME","TIME_SYSTEM":"UTC","EPOCH":"2021-09-10T22:00:00.999936","REV_AT_EPOCH":"358","APOAPSIS":"548.482","MEAN_ELEMENT_THEORY":"SGP4","BSTAR":"-0.00235670000000","ARG_OF_PERICENTER":"81.7635","INCLINATION":"53.0527","ECCENTRICITY":"0.00018540","RCS_SIZE":"LARGE","OBJECT_ID":"2021-024BF","LAUNCH_DATE":"2021-03-24","TLE_LINE1":"1 48030U 21024BF  21253.91667824 -.00035217  00000-0 -23567-2 0  9995","EPHEMERIS_TYPE":"0","OBJECT_TYPE":"PAYLOAD","ELEMENT_SET_NO":"999","CLASSIFICATION_TYPE":"U","GP_ID":"184473781","OBJECT_NAME":"STARLINK-2268","COUNTRY_CODE":"US","DECAY_DATE":null,"RA_OF_ASC_NODE":"142.3237","MEAN_MOTION_DDOT":"0.0000000000000","MEAN_MOTION_DOT":"-0.00035217","SEMIMAJOR_AXIS":"6925.333","FILE":"3112758","MEAN_MOTION":"15.06404988","SITE":"AFETR","PERIOD":"95.592"},{"RCS_SIZE":"LARGE","ECCENTRICITY":"0.00042800","ARG_OF_PERICENTER":"5.6483","INCLINATION":"53.0449","BSTAR":"0.00054502000000","TLE_LINE1":"1 48031U 21024BG  21253.91667824  .00076473  00000-0  54502-3 0  9997","OBJECT_ID":"2021-024BG","LAUNCH_DATE":"2021-03-24","EPOCH":"2021-09-10T22:00:00.999936","TIME_SYSTEM":"UTC","REF_FRAME":"TEME","MEAN_ANOMALY":"275.7009","CENTER_NAME":"EARTH","TLE_LINE2":"2 48031  53.0449  76.8018 0004280   5.6483 275.7009 15.73157749  3689","PERIAPSIS":"347.001","NORAD_CAT_ID":"48031","MEAN_ELEMENT_THEORY":"SGP4","APOAPSIS":"352.760","REV_AT_EPOCH":"368","SEMIMAJOR_AXIS":"6728.016","PERIOD":"91.536","SITE":"AFETR","FILE":"3112758","MEAN_MOTION":"15.73157749","COUNTRY_CODE":"US","OBJECT_NAME":"STARLINK-2267","CLASSIFICATION_TYPE":"U","GP_ID":"184474031","ELEMENT_SET_NO":"999","EPHEMERIS_TYPE":"0","OBJECT_TYPE":"PAYLOAD","MEAN_MOTION_DOT":"0.00076473","MEAN_MOTION_DDOT":"0.0000000000000","RA_OF_ASC_NODE":"76.8018","DECAY_DATE":null}];
